NORAD_CAT_ID,OBJECT_NAME,OBJECT_TYPE,EPOCH,MEAN_MOTION,ECCENTRICITY,INCLINATION,RA_OF_ASC_NODE,ARG_OF_PERICENTER,MEAN_ANOMALY,BSTAR,MEAN_MOTION_DOT,MEAN_MOTION_DDOT,TLE_LINE0,TLE_LINE1,TLE_LINE2,SEMIMAJOR_AXIS,PERIOD,APOGEE,PERIGEE,DECAYED
53732.0,STARLINK-4661,PAYLOAD,2022-12-21 14:11:43,15.08827728,0.0002183,53.2175,124.9123,36.5884,323.5257,-0.0001824,-3.189e-05,0.0,0 STARLINK-4661,1 53732U 22107AJ  22355.59147989 -.00003189  00000-0 -18240-3 0  9992,2 53732  53.2175 124.9123 0002183  36.5884 323.5257 15.08827728 16704,6917.918000000002,95.438,541.293,538.273,0.0
53732.0,STARLINK-4661,PAYLOAD,2022-12-22 01:19:25,15.08836395,0.0002107,53.2175,122.8314,38.4393,321.6749,-0.00012824,-2.328e-05,0.0,0 STARLINK-4661,1 53732U 22107AJ  22356.05515458 -.00002328  00000-0 -12824-3 0  9990,2 53732  53.2175 122.8314 0002107  38.4393 321.6749 15.08836395 16777,6917.891,95.438,541.214,538.299,0.0
53732.0,STARLINK-4661,PAYLOAD,2022-12-22 09:16:20,15.08834393,0.0002023,53.2182,121.3451,34.6819,325.4305,-4.9293e-05,-1.073e-05,0.0,0 STARLINK-4661,1 53732U 22107AJ  22356.38635380 -.00001073  00000-0 -49293-4 0  9990,2 53732  53.2182 121.3451 0002023  34.6819 325.4305 15.08834393 17428,6917.898,95.438,541.1619999999998,538.363,0.0
53732.0,STARLINK-4661,PAYLOAD,2022-12-22 18:48:39,15.08830181,0.0002166,53.2175,119.5602,38.1375,321.9770000000001,0.00018793,2.703e-05,0.0,0 STARLINK-4661,1 53732U 22107AJ  22356.78378893  .00002703  00000-0  18793-3 0  9996,2 53732  53.2175 119.5602 0002166  38.1375 321.9770 15.08830181 17485,6917.91,95.438,541.274,538.2769999999998,0.0
53732.0,STARLINK-4661,PAYLOAD,2022-12-23 01:10:11,15.08843047,0.0002185,53.2172,118.3708,40.3537,319.7617,-9.0463e-06,-4.32e-06,0.0,0 STARLINK-4661,1 53732U 22107AJ  22357.04874802 -.00000432  00000-0 -90463-5 0  9992,2 53732  53.2172 118.3708 0002185  40.3537 319.7617 15.08843047 16920,6917.871,95.437,541.248,538.225,0.0
53732.0,STARLINK-4661,PAYLOAD,2022-12-23 18:39:27,15.08823956,0.0002201,53.2179,115.1001,39.3534,320.7618,4.486e-05,4.25e-06,0.0,0 STARLINK-4661,1 53732U 22107AJ  22357.77740378  .00000425  00000-0  44860-4 0  9991,2 53732  53.2179 115.1001 0002201  39.3534 320.7618 15.08823956 17631,6917.929,95.439,541.317,538.2719999999998,0.0
53732.0,STARLINK-4661,PAYLOAD,2022-12-24 01:00:59,15.08832385,0.0002253,53.2179,113.9107,38.7627,321.3526,8.976200000000001e-05,1.14e-05,0.0,0 STARLINK-4661,1 53732U 22107AJ  22358.04235873  .00001140  00000-0  89762-4 0  9996,2 53732  53.2179 113.9107 0002253  38.7627 321.3526 15.08832385 17076,6917.904,95.438,541.327,538.21,0.0
53732.0,STARLINK-4661,PAYLOAD,2022-12-24 20:05:37,15.08843059,0.0002329,53.2175,110.342,39.5385,320.5777,7.9474e-06,-1.62e-06,0.0,0 STARLINK-4661,1 53732U 22107AJ  22358.83723544 -.00000162  00000-0  79474-5 0  9994,2 53732  53.2175 110.3420 0002329  39.5385 320.5777 15.08843059 17197,6917.871,95.437,541.347,538.125,0.0
53732.0,STARLINK-4661,PAYLOAD,2022-12-25 00:51:46,15.08846138,0.0002331,53.2175,109.4501,40.057,320.0593,1.6429e-05,-2.7e-07,0.0,0 STARLINK-4661,1 53732U 22107AJ  22359.03595264 -.00000027  00000-0  16429-4 0  9993,2 53732  53.2175 109.4501 0002331  40.0570 320.0593 15.08846138 17824,6917.861999999999,95.437,541.339,538.114,0.0
53732.0,STARLINK-4661,PAYLOAD,2022-12-25 19:56:24,15.08835505,0.0002171,53.2171,105.8821,37.3019,322.8124,2.5932e-05,1.24e-06,0.0,0 STARLINK-4661,1 53732U 22107AJ  22359.83083826  .00000124  00000-0  25932-4 0  9993,2 53732  53.2171 105.8821 0002171  37.3019 322.8124 15.08835505 17943,6917.894,95.438,541.261,538.257,0.0
53732.0,STARLINK-4661,PAYLOAD,2022-12-26 00:42:34,15.08830106,0.0002181,53.2179,104.9891,39.6028,320.5124,-6.9171e-06,-3.98e-06,0.0,0 STARLINK-4661,1 53732U 22107AJ  22360.02956345 -.00000398  00000-0 -69171-5 0  9990,2 53732  53.2179 104.9891 0002181  39.6028 320.5124 15.08830106 17378,6917.911,95.438,541.284,538.2669999999998,0.0
53732.0,STARLINK-4661,PAYLOAD,2022-12-26 07:04:05,15.08867211,0.000222,53.219,103.7986,47.1837,312.9341,-0.00039688,-6.604e-05,0.0,0 STARLINK-4661,1 53732U 22107AJ  22360.29451115 -.00006604  00000-0 -39688-3 0  9998,2 53732  53.2190 103.7986 0002220  47.1837 312.9341 15.08867211 17417,6917.797,95.436,541.198,538.126,0.0
53732.0,STARLINK-4661,PAYLOAD,2022-12-26 16:36:25,15.08841272,0.0002139,53.219,102.0142,39.775,320.3399,-2.8774e-05,-7.46e-06,0.0,0 STARLINK-4661,1 53732U 22107AJ  22360.69195753 -.00000746  00000-0 -28774-4 0  9991,2 53732  53.2190 102.0142 0002139  39.7750 320.3399 15.08841272 17474,6917.877,95.437,541.221,538.262,0.0
53732.0,STARLINK-4661,PAYLOAD,2022-12-27 06:54:52,15.08843469,0.0002108,53.2199,99.3424,8.4112,351.6915,-1.726e-05,-5.63e-06,0.0,0 STARLINK-4661,1 53732U 22107AJ  22361.28811082 -.00000563  00000-0 -17260-4 0  9992,2 53732  53.2199  99.3424 0002108   8.4112 351.6915 15.08843469 18163,6917.87,95.437,541.193,538.276,0.0
53732.0,STARLINK-4661,PAYLOAD,2022-12-27 16:27:10,15.08850839,0.0002546,53.217,97.5564,32.9116,327.2034,0.0001139,1.525e-05,0.0,0 STARLINK-4661,1 53732U 22107AJ  22361.68554287  .00001525  00000-0  11390-3 0  9991,2 53732  53.2170  97.5564 0002546  32.9116 327.2034 15.08850839 18226,6917.847,95.437,541.474,537.951,0.0
53732.0,STARLINK-4661,PAYLOAD,2022-12-29 06:36:27,15.08842194,0.0001867,53.2172,90.4157,48.4277,311.6875,-0.00013791,-2.482e-05,0.0,0 STARLINK-4661,1 53732U 22107AJ  22363.27531744 -.00002482  00000-0 -13791-3 0  9993,2 53732  53.2172  90.4157 0001867  48.4277 311.6875 15.08842194 17867,6917.874,95.437,541.03,538.447,0.0
53732.0,STARLINK-4661,PAYLOAD,2022-12-29 12:58:01,15.08820477,0.0002376,53.2192,89.2291,36.8726,323.243,-0.00020128,-3.489e-05,0.0,0 STARLINK-4661,1 53732U 22107AJ  22363.54029395 -.00003489  00000-0 -20128-3 0  9997,2 53732  53.2192  89.2291 0002376  36.8726 323.2430 15.08820477 17901,6917.94,95.439,541.4490000000002,538.161,0.0
53732.0,STARLINK-4661,PAYLOAD,2022-12-30 04:51:52,15.088246599999998,0.0001529,53.2186,86.2566,9.3558,350.7462,-0.00013542,-2.442e-05,0.0,0 STARLINK-4661,1 53732U 22107AJ  22364.20269210 -.00002442  00000-0 -13542-3 0  9993,2 53732  53.2186  86.2566 0001529   9.3558 350.7462 15.08824660 18003,6917.927,95.439,540.85,538.735,0.0
53732.0,STARLINK-4661,PAYLOAD,2022-12-30 12:48:47,15.08837538,0.0002227,53.2198,84.7718,33.4793,326.6339,0.00013648,1.884e-05,0.0,0 STARLINK-4661,1 53732U 22107AJ  22364.53387790  .00001884  00000-0  13648-3 0  9997,2 53732  53.2198  84.7718 0002227  33.4793 326.6339 15.08837538 18051,6917.888000000001,95.438,541.294,538.212,0.0
53732.0,STARLINK-4661,PAYLOAD,2022-12-30 15:59:32,15.08846071,0.0001972,53.2195,84.1756,41.4614,318.6527,0.00013634,1.883e-05,0.0,0 STARLINK-4661,1 53732U 22107AJ  22364.66635263  .00001883  00000-0  13634-3 0  9996,2 53732  53.2195  84.1756 0001972  41.4614 318.6527 15.08846071 18075,6917.861999999999,95.437,541.091,538.363,0.0
53732.0,STARLINK-4661,PAYLOAD,2022-12-31 14:14:56,15.08836434,0.0002459,53.2183,80.0123,28.9404,331.1724,0.00030388,4.551e-05,0.0,0 STARLINK-4661,1 53732U 22107AJ  22365.59371157  .00004551  00000-0  30388-3 0  9998,2 53732  53.2183  80.0123 0002459  28.9404 331.1724 15.08836434 18210,6917.891,95.438,541.457,538.055,0.0
53732.0,STARLINK-4661,PAYLOAD,2023-01-01 06:08:49,15.08837184,0.0002637,53.2191,77.0386,37.3868,322.7308,-7.9779e-05,-1.558e-05,0.0,0 STARLINK-4661,1 53732U 22107AJ  23001.25612701 -.00001558  00000-0 -79779-4 0  9996,2 53732  53.2191  77.0386 0002637  37.3868 322.7308 15.08837184 18310,6917.889,95.438,541.578,537.93,0.0
53732.0,STARLINK-4661,PAYLOAD,2023-01-01 14:05:45,15.08827754,0.0002158,53.2184,75.5506,25.3949,334.7149,-0.0002130999999999,-3.677e-05,0.0,0 STARLINK-4661,1 53732U 22107AJ  23001.58733729 -.00003677  00000-0 -21310-3 0  9997,2 53732  53.2184  75.5506 0002158  25.3949 334.7149 15.08827754 18367,6917.918000000002,95.438,541.276,538.29,0.0
53732.0,STARLINK-4661,PAYLOAD,2023-01-01 22:02:41,15.08830147,0.0002414,53.2185,74.0658,26.7342,333.3775,-0.00026599,-4.518e-05,0.0,0 STARLINK-4661,1 53732U 22107AJ  23001.91854108 -.00004518  00000-0 -26599-3 0  9998,2 53732  53.2185  74.0658 0002414  26.7342 333.3775 15.08830147 19010,6917.911,95.438,541.445,538.106,0.0
53732.0,STARLINK-4661,PAYLOAD,2023-01-02 04:24:14,15.08834086,0.0002459,53.2187,72.8768,24.3434,335.7674,-0.00022756,-3.908e-05,0.0,0 STARLINK-4661,1 53732U 22107AJ  23002.18349800 -.00003908  00000-0 -22756-3 0  9999,2 53732  53.2187  72.8768 0002459  24.3434 335.7674 15.08834086 18452,6917.898,95.438,541.465,538.062,0.0
53732.0,STARLINK-4661,PAYLOAD,2023-01-02 10:45:46,15.08838164,0.0002328,53.2183,71.6868,21.1468,338.962,-0.00010455,-1.952e-05,0.0,0 STARLINK-4661,1 53732U 22107AJ  23002.44845131 -.00001952  00000-0 -10455-3 0  9996,2 53732  53.2183  71.6868 0002328  21.1468 338.9620 15.08838164 18494,6917.886,95.438,541.361,538.141,0.0
53732.0,STARLINK-4661,PAYLOAD,2023-01-02 21:53:27,15.08848974,0.0001899999999999,53.2187,69.6041,35.3211,324.7907,-1.1179e-05,-4.66e-06,0.0,0 STARLINK-4661,1 53732U 22107AJ  23002.91212039 -.00000466  00000-0 -11179-4 0  9997,2 53732  53.2187  69.6041 0001900  35.3211 324.7907 15.08848974 18565,6917.853,95.437,541.0319999999998,538.404,0.0
53732.0,STARLINK-4661,PAYLOAD,2023-01-03 10:36:32,15.08854868,0.0002654,53.2185,67.2268,26.2947,333.8180000000001,-0.0001623,-2.872e-05,0.0,0 STARLINK-4661,1 53732U 22107AJ  23003.44204216 -.00002872  00000-0 -16230-3 0  9999,2 53732  53.2185  67.2268 0002654  26.2947 333.8180 15.08854868 19249,6917.835,95.437,541.536,537.864,0.0
53732.0,STARLINK-4661,PAYLOAD,2023-01-03 13:47:19,15.08836093,0.0002505999999999,53.2187,66.6315,28.4754,331.6375,2.8042e-05,1.58e-06,0.0,0 STARLINK-4661,1 53732U 22107AJ  23003.57453046  .00000158  00000-0  28042-4 0  9998,2 53732  53.2187  66.6315 0002506  28.4754 331.6375 15.08836093 18660,6917.892,95.438,541.491,538.024,0.0
